{"type": "FeatureCollection", "features": [ {"type": "Feature", "properties": {"norad_id": 67030, "name": "STARLINK-36138", "group": "last-30-days", "lat": 3.7179703769418544, "lon": 101.57804920666543, "alt_km": 371.4538166999655, "timestamp": "2025-12-26T14:28:46.398619+00:00", "meta": {"OBJECT_NAME": "STARLINK-36138", "OBJECT_ID": "2025-294A", "EPOCH": "2025-12-26T06:00:02.999808", "MEAN_MOTION": 15.66892284, "ECCENTRICITY": 0.00012021, "INCLINATION": 42.9994, "RA_OF_ASC_NODE": 99.6948, "ARG_OF_PERICENTER": 271.6168, "MEAN_ANOMALY": 259.6637, "EPHEMERIS_TYPE": 0, "CLASSIFICATION_TYPE": "U", "NORAD_CAT_ID": 67030, "ELEMENT_SET_NO": 999, "REV_AT_EPOCH": 228, "BSTAR": -0.02009325, "MEAN_MOTION_DOT": -0.01936603, "MEAN_MOTION_DDOT": 0}, "tle": {"line1": "1 67030U 25294A   25360.25003472 -.01936603  00000+0 -20093-1 0  9991", "line2": "2 67030  42.9994  99.6948 0001202 271.6168 259.6637 15.66892284  2287"}}, "geometry": {"type": "Point", "coordinates": [101.57804920666543, 3.7179703769418544]}}, {"type": "Feature", "properties": {"norad_id": 67031, "name": "STARLINK-36150", "group": "last-30-days", "lat": 4.9718907670220736, "lon": 102.93108111411824, "alt_km": 371.2737455705919, "timestamp": "2025-12-26T14:28:46.398640+00:00", "meta": {"OBJECT_NAME": "STARLINK-36150", "OBJECT_ID": "2025-294B", "EPOCH": "2025-12-26T06:00:02.999808", "MEAN_MOTION": 15.66895672, "ECCENTRICITY": 0.00012616, "INCLINATION": 42.9994, "RA_OF_ASC_NODE": 99.6898, "ARG_OF_PERICENTER": 272.6038, "MEAN_ANOMALY": 260.515, "EPHEMERIS_TYPE": 0, "CLASSIFICATION_TYPE": "U", "NORAD_CAT_ID": 67031, "ELEMENT_SET_NO": 999, "REV_AT_EPOCH": 247, "BSTAR": -0.020053592, "MEAN_MOTION_DOT": -0.01933506, "MEAN_MOTION_DDOT": 0}, "tle": {"line1": "1 67031U 25294B   25360.25003472 -.01933506  00000+0 -20054-1 0  9998", "line2": "2 67031  42.9994  99.6898 0001261 272.6038 260.5150 15.66895672  2470"}}, "geometry": {"type": "Point", "coordinates": [102.93108111411824, 4.9718907670220736]}}, {"type": "Feature", "properties": {"norad_id": 67032, "name": "STARLINK-36131", "group": "last-30-days", "lat": 7.691793671687112, "lon": 105.89793773250736, "alt_km": 371.0195652532766, "timestamp": "2025-12-26T14:28:46.398652+00:00", "meta": {"OBJECT_NAME": "STARLINK-36131", "OBJECT_ID": "2025-294C", "EPOCH": "2025-12-26T06:00:02.999808", "MEAN_MOTION": 15.6688173, "ECCENTRICITY": 0.00012227, "INCLINATION": 42.9993, "RA_OF_ASC_NODE": 99.6796, "ARG_OF_PERICENTER": 271.2395, "MEAN_ANOMALY": 265.9157, "EPHEMERIS_TYPE": 0, "CLASSIFICATION_TYPE": "U", "NORAD_CAT_ID": 67032, "ELEMENT_SET_NO": 999, "REV_AT_EPOCH": 228, "BSTAR": -0.020078797, "MEAN_MOTION_DOT": -0.01934647, "MEAN_MOTION_DDOT": 0}, "tle": {"line1": "1 67032U 25294C   25360.25003472 -.01934647  00000+0 -20079-1 0  9993", "line2": "2 67032  42.9993  99.6796 0001222 271.2395 265.9157 15.66881730  2280"}}, "geometry": {"type": "Point", "coordinates": [105.89793773250736, 7.691793671687112]}}, {"type": "Feature", "properties": {"norad_id": 67033, "name": "STARLINK-36137", "group": "last-30-days", "lat": 6.327888251415586, "lon": 104.40413043334307, "alt_km": 371.0854557535058, "timestamp": "2025-12-26T14:28:46.398663+00:00", "meta": {"OBJECT_NAME": "STARLINK-36137", "OBJECT_ID": "2025-294D", "EPOCH": "2025-12-26T06:00:02.999808", "MEAN_MOTION": 15.66887504, "ECCENTRICITY": 0.00012382, "INCLINATION": 42.9994, "RA_OF_ASC_NODE": 99.6849, "ARG_OF_PERICENTER": 275.1267, "MEAN_ANOMALY": 260.0021, "EPHEMERIS_TYPE": 0, "CLASSIFICATION_TYPE": "U", "NORAD_CAT_ID": 67033, "ELEMENT_SET_NO": 999, "REV_AT_EPOCH": 228, "BSTAR": -0.020051305, "MEAN_MOTION_DOT": -0.01932722, "MEAN_MOTION_DDOT": 0}, "tle": {"line1": "1 67033U 25294D   25360.25003472 -.01932722  00000+0 -20051-1 0  9996", "line2": "2 67033  42.9994  99.6849 0001238 275.1267 260.0021 15.66887504  2280"}}, "geometry": {"type": "Point", "coordinates": [104.40413043334307, 6.327888251415586]}}, {"type": "Feature", "properties": {"norad_id": 67034, "name": "STARLINK-36140", "group": "last-30-days", "lat": 9.094592128012273, "lon": 107.45122627859963, "alt_km": 370.8561693427446, "timestamp": "2025-12-26T14:28:46.398673+00:00", "meta": {"OBJECT_NAME": "STARLINK-36140", "OBJECT_ID": "2025-294E", "EPOCH": "2025-12-26T06:00:02.999808", "MEAN_MOTION": 15.66864533, "ECCENTRICITY": 0.00010751, "INCLINATION": 42.9992, "RA_OF_ASC_NODE": 99.6748, "ARG_OF_PERICENTER": 271.6061, "MEAN_ANOMALY": 267.6524, "EPHEMERIS_TYPE": 0, "CLASSIFICATION_TYPE": "U", "NORAD_CAT_ID": 67034, "ELEMENT_SET_NO": 999, "REV_AT_EPOCH": 228, "BSTAR": -0.020016278, "MEAN_MOTION_DOT": -0.01928017, "MEAN_MOTION_DDOT": 0}, "tle": {"line1": "1 67034U 25294E   25360.25003472 -.01928017  00000+0 -20016-1 0  9990", "line2": "2 67034  42.9992  99.6748 0001075 271.6061 267.6524 15.66864533  2287"}}, "geometry": {"type": "Point", "coordinates": [107.45122627859963, 9.094592128012273]}}, {"type": "Feature", "properties": {"norad_id": 67035, "name": "STARLINK-36085", "group": "last-30-days", "lat": 11.899455971364272, "lon": 110.61845611477969, "alt_km": 370.614987068504, "timestamp": "2025-12-26T14:28:46.398683+00:00", "meta": {"OBJECT_NAME": "STARLINK-36085", "OBJECT_ID": "2025-294F", "EPOCH": "2025-12-26T06:00:02.999808", "MEAN_MOTION": 15.66839712, "ECCENTRICITY": 0.00010419, "INCLINATION": 42.9994, "RA_OF_ASC_NODE": 99.6639, "ARG_OF_PERICENTER": 269.2881, "MEAN_ANOMALY": 274.2026, "EPHEMERIS_TYPE": 0, "CLASSIFICATION_TYPE": "U", "NORAD_CAT_ID": 67035, "ELEMENT_SET_NO": 999, "REV_AT_EPOCH": 228, "BSTAR": -0.020103164, "MEAN_MOTION_DOT": -0.01933648, "MEAN_MOTION_DDOT": 0}, "tle": {"line1": "1 67035U 25294F   25360.25003472 -.01933648  00000+0 -20103-1 0  9994", "line2": "2 67035  42.9994  99.6639 0001041 269.2881 274.2026 15.66839712  2287"}}, "geometry": {"type": "Point", "coordinates": [110.61845611477969, 11.899455971364272]}}, {"type": "Feature", "properties": {"norad_id": 67036, "name": "STARLINK-36125", "group": "last-30-days", "lat": 10.502136382329851, "lon": 109.02863224739522, "alt_km": 370.75006642930657, "timestamp": "2025-12-26T14:28:46.398693+00:00", "meta": {"OBJECT_NAME": "STARLINK-36125", "OBJECT_ID": "2025-294G", "EPOCH": "2025-12-26T06:00:02.999808", "MEAN_MOTION": 15.66852727, "ECCENTRICITY": 0.00012513, "INCLINATION": 42.9995, "RA_OF_ASC_NODE": 99.6691, "ARG_OF_PERICENTER": 271.6415, "MEAN_ANOMALY": 269.7331, "EPHEMERIS_TYPE": 0, "CLASSIFICATION_TYPE": "U", "NORAD_CAT_ID": 67036, "ELEMENT_SET_NO": 999, "REV_AT_EPOCH": 247, "BSTAR": -0.020086553, "MEAN_MOTION_DOT": -0.01933296, "MEAN_MOTION_DDOT": 0}, "tle": {"line1": "1 67036U 25294G   25360.25003472 -.01933296  00000+0 -20087-1 0  9995", "line2": "2 67036  42.9995  99.6691 0001251 271.6415 269.7331 15.66852727  2470"}}, "geometry": {"type": "Point", "coordinates": [109.02863224739522, 10.502136382329851]}}, {"type": "Feature", "properties": {"norad_id": 67037, "name": "STARLINK-35732", "group": "last-30-days", "lat": 13.332559422295065, "lon": 112.2770674782594, "alt_km": 370.49470481922435, "timestamp": "2025-12-26T14:28:46.398703+00:00", "meta": {"OBJECT_NAME": "STARLINK-35732", "OBJECT_ID": "2025-294H", "EPOCH": "2025-12-26T06:00:02.999808", "MEAN_MOTION": 15.66819865, "ECCENTRICITY": 0.00011431, "INCLINATION": 42.9995, "RA_OF_ASC_NODE": 99.6586, "ARG_OF_PERICENTER": 269.981, "MEAN_ANOMALY": 275.6983, "EPHEMERIS_TYPE": 0, "CLASSIFICATION_TYPE": "U", "NORAD_CAT_ID": 67037, "ELEMENT_SET_NO": 999, "REV_AT_EPOCH": 239, "BSTAR": -0.020118407, "MEAN_MOTION_DOT": -0.01933624, "MEAN_MOTION_DDOT": 0}, "tle": {"line1": "1 67037U 25294H   25360.25003472 -.01933624  00000+0 -20118-1 0  9996", "line2": "2 67037  42.9995  99.6586 0001143 269.9810 275.6983 15.66819865  2399"}}, "geometry": {"type": "Point", "coordinates": [112.2770674782594, 13.332559422295065]}}, {"type": "Feature", "properties": {"norad_id": 67038, "name": "STARLINK-35775", "group": "last-30-days", "lat": 14.661741406416267, "lon": 113.84377484371181, "alt_km": 370.3771417418593, "timestamp": "2025-12-26T14:28:46.398717+00:00", "meta": {"OBJECT_NAME": "STARLINK-35775", "OBJECT_ID": "2025-294J", "EPOCH": "2025-12-26T06:00:02.999808", "MEAN_MOTION": 15.66805601, "ECCENTRICITY": 0.00012431, "INCLINATION": 42.9998, "RA_OF_ASC_NODE": 99.6529, "ARG_OF_PERICENTER": 269.8073, "MEAN_ANOMALY": 277.9087, "EPHEMERIS_TYPE": 0, "CLASSIFICATION_TYPE": "U", "NORAD_CAT_ID": 67038, "ELEMENT_SET_NO": 999, "REV_AT_EPOCH": 239, "BSTAR": -0.02007003, "MEAN_MOTION_DOT": -0.01928589, "MEAN_MOTION_DDOT": 0}, "tle": {"line1": "1 67038U 25294J   25360.25003472 -.01928589  00000+0 -20070-1 0  9998", "line2": "2 67038  42.9998  99.6529 0001243 269.8073 277.9087 15.66805601  2394"}}, "geometry": {"type": "Point", "coordinates": [113.84377484371181, 14.661741406416267]}}, {"type": "Feature", "properties": {"norad_id": 67039, "name": "STARLINK-35705", "group": "last-30-days", "lat": 17.321453867110584, "lon": 117.08104092556147, "alt_km": 370.0349337336229, "timestamp": "2025-12-26T14:28:46.398727+00:00", "meta": {"OBJECT_NAME": "STARLINK-35705", "OBJECT_ID": "2025-294K", "EPOCH": "2025-12-26T06:00:02.999808", "MEAN_MOTION": 15.66787131, "ECCENTRICITY": 0.00012241, "INCLINATION": 42.9994, "RA_OF_ASC_NODE": 99.6423, "ARG_OF_PERICENTER": 272.2113, "MEAN_ANOMALY": 279.6282, "EPHEMERIS_TYPE": 0, "CLASSIFICATION_TYPE": "U", "NORAD_CAT_ID": 67039, "ELEMENT_SET_NO": 999, "REV_AT_EPOCH": 228, "BSTAR": -0.020114319, "MEAN_MOTION_DOT": -0.01931045, "MEAN_MOTION_DDOT": 0}, "tle": {"line1": "1 67039U 25294K   25360.25003472 -.01931045  00000+0 -20114-1 0  9999", "line2": "2 67039  42.9994  99.6423 0001224 272.2113 279.6282 15.66787131  2287"}}, "geometry": {"type": "Point", "coordinates": [117.08104092556147, 17.321453867110584]}}]}